[
    {
        "OBJECT_NAME": "ACS3",
        "OBJECT_ID": "2024-077B",
        "EPOCH": "2026-06-27T12:55:29.040384",
        "MEAN_MOTION": 13.94525139,
        "ECCENTRICITY": 0.0098109,
        "INCLINATION": 97.1675,
        "RA_OF_ASC_NODE": 95.0246,
        "ARG_OF_PERICENTER": 55.4134,
        "MEAN_ANOMALY": 305.624,
        "EPHEMERIS_TYPE": 0,
        "CLASSIFICATION_TYPE": "U",
        "NORAD_CAT_ID": 59588,
        "ELEMENT_SET_NO": 999,
        "REV_AT_EPOCH": 10948,
        "BSTAR": 0.00060327,
        "MEAN_MOTION_DOT": 8.1e-06,
        "MEAN_MOTION_DDOT": 0
    },
    {
        "OBJECT_NAME": "CZ-8A R/B",
        "OBJECT_ID": "2025-231K",
        "EPOCH": "2026-06-27T17:49:36.260256",
        "MEAN_MOTION": 14.30157562,
        "ECCENTRICITY": 0.0116494,
        "INCLINATION": 50.0056,
        "RA_OF_ASC_NODE": 354.4079,
        "ARG_OF_PERICENTER": 261.1551,
        "MEAN_ANOMALY": 97.616,
        "EPHEMERIS_TYPE": 0,
        "CLASSIFICATION_TYPE": "U",
        "NORAD_CAT_ID": 66004,
        "ELEMENT_SET_NO": 999,
        "REV_AT_EPOCH": 3645,
        "BSTAR": 5.7512e-05,
        "MEAN_MOTION_DOT": -2e-08,
        "MEAN_MOTION_DDOT": 0
    },
    {
        "OBJECT_NAME": "SZ-21 MODULE",
        "OBJECT_ID": "2025-246C",
        "EPOCH": "2026-06-27T12:56:45.981312",
        "MEAN_MOTION": 15.77283181,
        "ECCENTRICITY": 0.0004962,
        "INCLINATION": 41.4713,
        "RA_OF_ASC_NODE": 242.8104,
        "ARG_OF_PERICENTER": 74.6572,
        "MEAN_ANOMALY": 285.4821,
        "EPHEMERIS_TYPE": 0,
        "CLASSIFICATION_TYPE": "U",
        "NORAD_CAT_ID": 66515,
        "ELEMENT_SET_NO": 999,
        "REV_AT_EPOCH": 3537,
        "BSTAR": 0.00025772,
        "MEAN_MOTION_DOT": 0.00043597,
        "MEAN_MOTION_DDOT": 0
    }
]