ACS3                    
1 59588U 24077B   26178.53853056  .00000810  00000+0  60327-3 0  9993
2 59588  97.1675  95.0246 0098109  55.4134 305.6240 13.94525140109483
CZ-8A R/B               
1 66004U 25231K   26178.74278079 -.00000002  00000+0  57512-4 0  9993
2 66004  50.0056 354.4079 0116493 261.1551  97.6160 14.30157562 36452
SZ-21 MODULE            
1 66515U 25246C   26178.53942108  .00043597  00000+0  25772-3 0  9991
2 66515  41.4713 242.8104 0004962  74.6572 285.4821 15.77283181 35379
